STARLINK-35762          
1 67172C 25303K   26094.57479167 -.00010575  00000+0 -38325-3 0   942
2 67172  43.0018 164.8371 0001392 276.2422 326.9986 15.27564514    15
STARLINK-36183          
1 67173C 25303L   26094.54562500 -.00094075  00000+0 -34089-2 0   943
2 67173  43.0032 164.8990 0001405 280.2306 204.9002 15.27610368    13
STARLINK-36210          
1 67174C 25303M   26094.59215278 -.00048564  00000+0 -17603-2 0   941
2 67174  43.0033 164.5509 0001462 274.3597 142.3296 15.27577823    15
STARLINK-35756          
1 67175C 25303N   26094.56645833 -.00074550  00000+0 -27018-2 0   948
2 67175  43.0030 164.6608 0001406 266.2282  23.1517 15.27596092    14
STARLINK-35785          
1 67176C 25303P   26094.57618056 -.00077705  00000+0 -28169-2 0   940
2 67176  43.0016 164.5375 0001376 269.8212 101.3826 15.27588400    13
STARLINK-35853          
1 67177C 25303Q   26094.53451389 -.00118800  00000+0 -43051-2 0   940
2 67177  43.0024 164.8239 0001429 265.2192 215.3416 15.27619699    17
STARLINK-35878          
1 67178C 25303R   26094.63312500 -.00067191  00000+0 -24373-2 0   945
2 67178  43.0013 164.1639 0001745 268.2772  77.7837 15.27562109    11
STARLINK-35793          
1 67179C 25303S   26094.62826389  .00003652  00000+0  13237-3 0   948
2 67179  43.0009 164.1582 0001478 266.5442  66.7910 15.27548482    10
STARLINK-35876          
1 67180C 25303T   26094.61923611 -.00202520  00000+0 -73290-2 0   946
2 67180  43.0009 164.1922 0001321 272.8420  17.9081 15.27706886    14
STARLINK-35766          
1 67181C 25303U   26094.61784722  .00001649  00000+0  59796-4 0   949
2 67181  42.9997 164.0659 0001446 270.5359  69.1428 15.27543012    13
STARLINK-35782          
1 67182C 25303V   26094.55743056 -.00057177  00000+0 -20727-2 0   947
2 67182  42.9991 164.2678 0001425 259.3851 164.2436 15.27579566    19
STARLINK-35719          
1 67183C 25303W   26094.60256944 -.00039734  00000+0 -14406-2 0   945
2 67183  42.9991 164.0993 0001559 279.3084 357.4884 15.27564198    14
STARLINK-35910          
1 67184C 25303X   26094.65534722  .00041978  00000+0  15220-2 0   940
2 67184  42.9992 163.6630 0001464 269.4333 354.5228 15.27524193    12
STARLINK-35859          
1 67185C 25303Y   26094.55743056 -.00079691  00000+0 -28887-2 0   940
2 67185  42.9989 164.2836 0001331 266.4534 150.0903 15.27592176    12
STARLINK-35857          
1 67186C 25303Z   26094.58104167 -.00143750  00000+0 -52142-2 0   947
2 67186  43.0010 164.3581 0001398 268.4043 193.3552 15.27602724    19
STARLINK-35880          
1 67187C 25303AA  26094.59562500  .00091086  00000+0  33002-2 0   944
2 67187  42.9990 164.1724 0001427 302.4132 281.9801 15.27522946    11
STARLINK-35675          
1 67188C 25303AB  26094.62062500  .00043885  00000+0  15913-2 0   949
2 67188  42.9992 164.7085 0001393 270.6487 168.4136 15.27519255    10
STARLINK-35889          
1 67189C 25303AC  26094.64770833  .00008045  00000+0  29165-3 0   941
2 67189  43.0000 164.4714 0001446 269.8327 353.7065 15.27544679    19
STARLINK-35888          
1 67190C 25303AD  26094.63590278  .00033900  00000+0  12280-2 0   942
2 67190  43.0022 164.3999 0002024 280.2961 334.8998 15.27557124    17
STARLINK-35716          
1 67191C 25303AE  26094.54770833  .00051975  00000+0  18840-2 0   940
2 67191  42.9991 165.1029 0001281 265.3344 139.3552 15.27526994    12
STARLINK-36182          
1 67192C 25304A   26094.62687500 -.00041741  00000+0 -34980-2 0   944
2 67192  69.9997 109.0724 0004106 269.9304 308.4313 14.98349557    11
STARLINK-36279          
1 67193C 25304B   26094.61784722 -.00036966  00000+0 -30981-2 0   948
2 67193  69.9989 109.0634 0003654 271.3199 281.7557 14.98345216    10
STARLINK-36284          
1 67194C 25304C   26094.61229167 -.00039861  00000+0 -33404-2 0   946
2 67194  69.9992 109.2049 0005029 271.8838 138.6942 14.98345835    15
STARLINK-36291          
1 67195C 25304D   26094.54354167  .00000038  00000+0  32006-5 0   940
2 67195  69.9991 109.4755 0003914 274.1798  34.7519 14.98325097    17
STARLINK-36239          
1 67196C 25304E   26094.55951389 -.00006263  00000+0 -52498-3 0   944
2 67196  69.9994 109.4143 0003811 278.8897 139.5965 14.98319668    15
STARLINK-36283          
1 67197C 25304F   26094.64840278 -.00050957  00000+0 -42691-2 0   941
2 67197  69.9991 108.8825 0003416 270.8780 176.9044 14.98366777    13
STARLINK-36267          
1 67198C 25304G   26094.54145833  .00011476  00000+0  96166-3 0   944
2 67198  69.9991 109.3304 0003661 275.9014 157.7371 14.98325621    13
STARLINK-36268          
1 67199C 25304H   26094.61576389 -.00040883  00000+0 -34266-2 0   945
2 67199  69.9994 109.1884 0003408 272.6819 155.7349 14.98345592    16
STARLINK-36270          
1 67200C 25304J   26094.61020833 -.00033263  00000+0 -27899-2 0   944
2 67200  69.9991 109.0626 0003112 273.1481 260.4969 14.98315325    15
STARLINK-36262          
1 67201C 25304K   26094.64631944 -.00048667  00000+0 -40795-2 0   943
2 67201  69.9990 109.1679 0003063 273.2658 275.7918 14.98345477    10
STARLINK-36263          
1 67202C 25304L   26094.61229167 -.00038258  00000+0 -32058-2 0   949
2 67202  69.9991 109.1772 0004052 271.0432 161.9133 14.98351585    13
STARLINK-36224          
1 67203C 25304M   26094.56993056 -.00010585  00000+0 -88717-3 0   946
2 67203  69.9988 109.2308 0003875 270.6899 338.9913 14.98328826    14
STARLINK-36185          
1 67204C 25304N   26094.53520833  .00018934  00000+0  15870-2 0   946
2 67204  69.9988 109.2194 0003899 273.1081 239.3701 14.98312724    14
STARLINK-36197          
1 67205C 25304P   26094.58381944 -.00020770  00000+0 -17406-2 0   940
2 67205  69.9996 109.0217 0003653 271.3700 210.7711 14.98338053    11
STARLINK-36056          
1 67206C 25304Q   26094.57965278 -.00020059  00000+0 -16813-2 0   949
2 67206  69.9995 109.3322 0003074 274.8468 273.8271 14.98334977    19
STARLINK-36225          
1 67207C 25304R   26094.60256944 -.00033683  00000+0 -28228-2 0   947
2 67207  69.9998 109.1731 0003630 273.1670 129.1139 14.98345399    16
STARLINK-36265          
1 67208C 25304S   26094.61159722 -.00041208  00000+0 -34539-2 0   949
2 67208  69.9993 109.2307 0003930 273.7577 110.5758 14.98342988    19
STARLINK-36226          
1 67209C 25304T   26094.64423611 -.00049001  00000+0 -41074-2 0   945
2 67209  69.9993 109.2226 0003497 272.7103 220.0923 14.98345397    10
STARLINK-36173          
1 67210C 25304U   26094.64979167 -.00051244  00000+0 -42951-2 0   946
2 67210  69.9990 109.0061 0003254 270.0201  72.8115 14.98349989    12
STARLINK-36280          
1 67211C 25304V   26094.60395833 -.00029650  00000+0 -24869-2 0   949
2 67211  69.9997 109.0739 0003195 273.8179 227.0110 14.98312913    17
STARLINK-36213          
1 67212C 25304W   26094.65118056 -.00051209  00000+0 -42920-2 0   948
2 67212  69.9990 108.8998 0003643 271.0501 169.3001 14.98350708    13
STARLINK-36199          
1 67213C 25304X   26094.65118056 -.00049993  00000+0 -41901-2 0   944
2 67213  69.9994 108.8239 0003287 270.6017 237.2870 14.98351265    15
STARLINK-36203          
1 67214C 25304Y   26094.53590278  .00003557  00000+0  29804-3 0   945
2 67214  69.9996 109.4674 0004777 270.0524  20.1980 14.98324060    14
STARLINK-36221          
1 67215C 25304Z   26094.55604167 -.00006241  00000+0 -52309-3 0   942
2 67215  69.9998 109.3664 0004126 275.3458 168.5244 14.98328414    14
STARLINK-36212          
1 67216C 25304AA  26094.57409722 -.00013623  00000+0 -11417-2 0   941
2 67216  69.9993 109.2667 0003524 271.4510 314.6880 14.98336985    11
STARLINK-36216          
1 67217C 25304AB  26094.64006944 -.00047713  00000+0 -39985-2 0   946
2 67217  69.9995 109.0490 0004688 271.1970 355.8094 14.98350567    11
STARLINK-36211          
1 67218C 25304AC  26094.56159722 -.00004013  00000+0 -33634-3 0   943
2 67218  69.9995 109.1987 0003924 273.0756 335.7896 14.98327172    12
STARLINK-36490          
1 67305C 26002A   26094.56298611 -.00155980  00000+0 -56515-2 0   949
2 67305  42.9993 178.8577 0001358 275.2860 287.6388 15.27644990    19
STARLINK-36488          
1 67306C 26002B   26094.58729167  .00059398  00000+0  21492-2 0   947
2 67306  43.0010 179.3010 0001658 268.6319 187.5688 15.27582376    18
STARLINK-36481          
1 67307C 26002C   26094.57687500 -.00128890  00000+0 -46704-2 0   940
2 67307  43.0038 179.1692 0001394 275.0098 201.6588 15.27627558    15
STARLINK-36449          
1 67308C 26002D   26094.60395833 -.00158910  00000+0 -57605-2 0   948
2 67308  43.0031 178.9144 0001400 278.9713  29.3120 15.27630231    11
STARLINK-36482          
1 67309C 26002E   26094.59770833 -.00164370  00000+0 -59595-2 0   941
2 67309  43.0030 178.8999 0001528 272.0022  23.1171 15.27627561    17
STARLINK-36491          
1 67310C 26002F   26094.54215278  .00122880  00000+0  44431-2 0   946
2 67310  43.0026 179.5036 0001407 286.2979 302.5680 15.27574140    11
STARLINK-36495          
1 67311C 26002G   26094.53173611 -.00187920  00000+0 -68108-2 0   945
2 67311  43.0010 179.1367 0001191 282.4579  65.9726 15.27650993    14
STARLINK-36485          
1 67312C 26002H   26094.56576389 -.00063020  00000+0 -22859-2 0   945
2 67312  42.9992 178.7539 0001387 277.6631 336.0232 15.27561633    16
STARLINK-36445          
1 67313C 26002J   26094.59493056 -.00182570  00000+0 -66143-2 0   944
2 67313  43.0004 179.3083 0001391 260.6545 216.3774 15.27661696    16
STARLINK-36476          
1 67314C 26002K   26094.64701389 -.00054733  00000+0 -19846-2 0   949
2 67314  43.0031 178.7197 0001552 272.6174 251.4867 15.27570255    19
STARLINK-36463          
1 67315C 26002L   26094.53659722  .00003266  00000+0  11838-3 0   948
2 67315  43.0004 179.0734 0000908 265.9091 123.3688 15.27550979    17
STARLINK-36461          
1 67316C 26002M   26094.59493056 -.00073409  00000+0 -26608-2 0   949
2 67316  42.9997 178.6921 0001362 268.9534 102.7675 15.27590861    11
